ONEWEB-0205             
1 48226U 21031S   25170.28427616  .00000147  00000+0  36136-3 0  9993
2 48226  87.9031   1.8952 0001957  84.0319 276.1034 13.14501590200592
ONEWEB-0206             
1 48227U 21031T   25170.25731350 -.00000150  00000+0 -43965-3 0  9998
2 48227  87.9026   1.8806 0001843  86.4463 273.6878 13.14502056200546
ONEWEB-0182             
1 48228U 21031U   25170.25255398 -.00000175  00000+0 -50689-3 0  9990
2 48228  87.9030   1.9241 0001684  88.6398 271.4925 13.14501800200758
ONEWEB-0186             
1 48229U 21031V   25170.03530551 -.00000038  00000+0 -13778-3 0  9990
2 48229  87.9031   1.9290 0001902  86.9846 273.1501 13.14502101200671
ONEWEB-0181             
1 48230U 21031W   25170.46981155 -.00000053  00000+0 -17732-3 0  9990
2 48230  87.9036   1.9150 0001994  88.2464 271.8894 13.14501658200581
ONEWEB-0188             
1 48231U 21031X   25170.05116469  .00000190  00000+0  47721-3 0  9995
2 48231  87.9032   1.9894 0001837  87.4090 272.7250 13.14501486200434
ONEWEB-0220             
1 48232U 21031Y   25170.24305841 -.00000202  00000+0 -58027-3 0  9998
2 48232  87.9029   1.8945 0001963  80.5940 279.5411 13.14504750200728
ONEWEB-0165             
1 48233U 21031Z   25170.27158694  .00000097  00000+0  22707-3 0  9990
2 48233  87.9031   1.9293 0002004  85.6375 274.4983 13.14502159200688
